STARLINK-36538          
1 67512U 26012V   26037.25002315 -.01952075  00000+0 -17236-1 0  9998
2 67512  42.9989 134.1505 0001139 278.9822 249.3096 15.70785091  4016
STARLINK-36531          
1 67513U 26012W   26037.25002315 -.01934804  00000+0 -16437-1 0  9991
2 67513  42.9991 134.1195 0001122 276.3420 264.5405 15.71663340  3951
STARLINK-36530          
1 67514U 26012X   26037.25002315 -.01936878  00000+0 -17138-1 0  9994
2 67514  42.9990 134.1263 0001046 273.2429 264.6080 15.70712592  3950
STARLINK-36543          
1 67515U 26012Y   26037.25002315 -.01933018  00000+0 -17838-1 0  9995
2 67515  42.9990 134.1378 0001183 271.9618 261.0863 15.69708745  3958
STARLINK-36537          
1 67516U 26012Z   26037.25002315 -.01928801  00000+0 -16322-1 0  9997
2 67516  42.9990 134.0559 0001181 268.7034 296.9880 15.71744651  3958
STARLINK-36544          
1 67517U 26012AA  26037.25002315 -.01931973  00000+0 -15724-1 0  9997
2 67517  42.9992 134.0543 0001219 267.9186 298.4688 15.72656113  4012
STARLINK-36412          
1 67518U 26012AB  26037.25002315 -.01931509  00000+0 -16257-1 0  9995
2 67518  42.9990 134.0110 0001212 268.3758 315.2877 15.71874367  3956
STARLINK-36415          
1 67519U 26012AC  26037.25002315 -.01928760  00000+0 -16094-1 0  9990
2 67519  42.9989 133.9895 0001187 265.2215 326.5883 15.72071629  4176
STARLINK-36547          
1 67520U 26012AD  26037.25002315 -.01932398  00000+0 -16391-1 0  9994
2 67520  42.9990 134.0258 0001163 269.7599 307.6850 15.71694720  3954
STARLINK-36444          
1 67521U 26012AE  26037.25002315 -.01931446  00000+0 -17588-1 0  9997
2 67521  42.9991 134.0803 0001192 271.7718 283.9942 15.70022381  3955
HULIANWANG DIGUI-146    
1 67522U 26013A   26037.14252743  .00000024  00000+0  14494-3 0  9990
2 67522  50.0082 113.7182 0000252 308.8597  51.2278 13.86571838  2491
HULIANWANG DIGUI-147    
1 67523U 26013B   26036.56432582  .00000034  00000+0  15237-3 0  9994
2 67523  49.9989 115.9729 0000894 207.9415 152.1435 13.86775885  2412
