CCSDS_OMM_VERS = 2.0
CREATION_DATE  = 
ORIGINATOR     = 

OBJECT_NAME    = STARLINK-36538
OBJECT_ID      = 2026-012V
CENTER_NAME    = EARTH
REF_FRAME      = TEME
TIME_SYSTEM    = UTC
MEAN_ELEMENT_THEORY = SGP/SGP4

EPOCH          = 2026-02-06T06:00:02.000160
MEAN_MOTION    = 15.70785091
ECCENTRICITY   = .00011398
INCLINATION    = 42.9989
RA_OF_ASC_NODE = 134.1505
ARG_OF_PERICENTER = 278.9822
MEAN_ANOMALY   = 249.3096

EPHEMERIS_TYPE = 0
CLASSIFICATION_TYPE = U
NORAD_CAT_ID   = 67512
ELEMENT_SET_NO = 999
REV_AT_EPOCH   = 401
BSTAR          = -.17235859E-1
MEAN_MOTION_DOT = -.1952075E-1
MEAN_MOTION_DDOT = 0

CCSDS_OMM_VERS = 2.0
CREATION_DATE  = 
ORIGINATOR     = 

OBJECT_NAME    = STARLINK-36531
OBJECT_ID      = 2026-012W
CENTER_NAME    = EARTH
REF_FRAME      = TEME
TIME_SYSTEM    = UTC
MEAN_ELEMENT_THEORY = SGP/SGP4

EPOCH          = 2026-02-06T06:00:02.000160
MEAN_MOTION    = 15.71663340
ECCENTRICITY   = .00011228
INCLINATION    = 42.9991
RA_OF_ASC_NODE = 134.1195
ARG_OF_PERICENTER = 276.3420
MEAN_ANOMALY   = 264.5405

EPHEMERIS_TYPE = 0
CLASSIFICATION_TYPE = U
NORAD_CAT_ID   = 67513
ELEMENT_SET_NO = 999
REV_AT_EPOCH   = 395
BSTAR          = -.16436818E-1
MEAN_MOTION_DOT = -.1934804E-1
MEAN_MOTION_DDOT = 0

CCSDS_OMM_VERS = 2.0
CREATION_DATE  = 
ORIGINATOR     = 

OBJECT_NAME    = STARLINK-36530
OBJECT_ID      = 2026-012X
CENTER_NAME    = EARTH
REF_FRAME      = TEME
TIME_SYSTEM    = UTC
MEAN_ELEMENT_THEORY = SGP/SGP4

EPOCH          = 2026-02-06T06:00:02.000160
MEAN_MOTION    = 15.70712592
ECCENTRICITY   = .00010465
INCLINATION    = 42.9990
RA_OF_ASC_NODE = 134.1263
ARG_OF_PERICENTER = 273.2429
MEAN_ANOMALY   = 264.6080

EPHEMERIS_TYPE = 0
CLASSIFICATION_TYPE = U
NORAD_CAT_ID   = 67514
ELEMENT_SET_NO = 999
REV_AT_EPOCH   = 395
BSTAR          = -.17137556E-1
MEAN_MOTION_DOT = -.1936878E-1
MEAN_MOTION_DDOT = 0

CCSDS_OMM_VERS = 2.0
CREATION_DATE  = 
ORIGINATOR     = 

OBJECT_NAME    = STARLINK-36543
OBJECT_ID      = 2026-012Y
CENTER_NAME    = EARTH
REF_FRAME      = TEME
TIME_SYSTEM    = UTC
MEAN_ELEMENT_THEORY = SGP/SGP4

EPOCH          = 2026-02-06T06:00:02.000160
MEAN_MOTION    = 15.69708745
ECCENTRICITY   = .00011839
INCLINATION    = 42.9990
RA_OF_ASC_NODE = 134.1378
ARG_OF_PERICENTER = 271.9618
MEAN_ANOMALY   = 261.0863

EPHEMERIS_TYPE = 0
CLASSIFICATION_TYPE = U
NORAD_CAT_ID   = 67515
ELEMENT_SET_NO = 999
REV_AT_EPOCH   = 395
BSTAR          = -.17838358E-1
MEAN_MOTION_DOT = -.1933018E-1
MEAN_MOTION_DDOT = 0

CCSDS_OMM_VERS = 2.0
CREATION_DATE  = 
ORIGINATOR     = 

OBJECT_NAME    = STARLINK-36537
OBJECT_ID      = 2026-012Z
CENTER_NAME    = EARTH
REF_FRAME      = TEME
TIME_SYSTEM    = UTC
MEAN_ELEMENT_THEORY = SGP/SGP4

EPOCH          = 2026-02-06T06:00:02.000160
MEAN_MOTION    = 15.71744651
ECCENTRICITY   = .00011816
INCLINATION    = 42.9990
RA_OF_ASC_NODE = 134.0559
ARG_OF_PERICENTER = 268.7034
MEAN_ANOMALY   = 296.9880

EPHEMERIS_TYPE = 0
CLASSIFICATION_TYPE = U
NORAD_CAT_ID   = 67516
ELEMENT_SET_NO = 999
REV_AT_EPOCH   = 395
BSTAR          = -.16321929E-1
MEAN_MOTION_DOT = -.1928801E-1
MEAN_MOTION_DDOT = 0

CCSDS_OMM_VERS = 2.0
CREATION_DATE  = 
ORIGINATOR     = 

OBJECT_NAME    = STARLINK-36544
OBJECT_ID      = 2026-012AA
CENTER_NAME    = EARTH
REF_FRAME      = TEME
TIME_SYSTEM    = UTC
MEAN_ELEMENT_THEORY = SGP/SGP4

EPOCH          = 2026-02-06T06:00:02.000160
MEAN_MOTION    = 15.72656113
ECCENTRICITY   = .00012191
INCLINATION    = 42.9992
RA_OF_ASC_NODE = 134.0543
ARG_OF_PERICENTER = 267.9186
MEAN_ANOMALY   = 298.4688

EPHEMERIS_TYPE = 0
CLASSIFICATION_TYPE = U
NORAD_CAT_ID   = 67517
ELEMENT_SET_NO = 999
REV_AT_EPOCH   = 401
BSTAR          = -.15723519E-1
MEAN_MOTION_DOT = -.1931973E-1
MEAN_MOTION_DDOT = 0

CCSDS_OMM_VERS = 2.0
CREATION_DATE  = 
ORIGINATOR     = 

OBJECT_NAME    = STARLINK-36412
OBJECT_ID      = 2026-012AB
CENTER_NAME    = EARTH
REF_FRAME      = TEME
TIME_SYSTEM    = UTC
MEAN_ELEMENT_THEORY = SGP/SGP4

EPOCH          = 2026-02-06T06:00:02.000160
MEAN_MOTION    = 15.71874367
ECCENTRICITY   = .00012124
INCLINATION    = 42.9990
RA_OF_ASC_NODE = 134.0110
ARG_OF_PERICENTER = 268.3758
MEAN_ANOMALY   = 315.2877

EPHEMERIS_TYPE = 0
CLASSIFICATION_TYPE = U
NORAD_CAT_ID   = 67518
ELEMENT_SET_NO = 999
REV_AT_EPOCH   = 395
BSTAR          = -.16256976E-1
MEAN_MOTION_DOT = -.1931509E-1
MEAN_MOTION_DDOT = 0

CCSDS_OMM_VERS = 2.0
CREATION_DATE  = 
ORIGINATOR     = 

OBJECT_NAME    = STARLINK-36415
OBJECT_ID      = 2026-012AC
CENTER_NAME    = EARTH
REF_FRAME      = TEME
TIME_SYSTEM    = UTC
MEAN_ELEMENT_THEORY = SGP/SGP4

EPOCH          = 2026-02-06T06:00:02.000160
MEAN_MOTION    = 15.72071629
ECCENTRICITY   = .0001187
INCLINATION    = 42.9989
RA_OF_ASC_NODE = 133.9895
ARG_OF_PERICENTER = 265.2215
MEAN_ANOMALY   = 326.5883

EPHEMERIS_TYPE = 0
CLASSIFICATION_TYPE = U
NORAD_CAT_ID   = 67519
ELEMENT_SET_NO = 999
REV_AT_EPOCH   = 417
BSTAR          = -.1609425E-1
MEAN_MOTION_DOT = -.192876E-1
MEAN_MOTION_DDOT = 0

CCSDS_OMM_VERS = 2.0
CREATION_DATE  = 
ORIGINATOR     = 

OBJECT_NAME    = STARLINK-36547
OBJECT_ID      = 2026-012AD
CENTER_NAME    = EARTH
REF_FRAME      = TEME
TIME_SYSTEM    = UTC
MEAN_ELEMENT_THEORY = SGP/SGP4

EPOCH          = 2026-02-06T06:00:02.000160
MEAN_MOTION    = 15.71694720
ECCENTRICITY   = .00011638
INCLINATION    = 42.9990
RA_OF_ASC_NODE = 134.0258
ARG_OF_PERICENTER = 269.7599
MEAN_ANOMALY   = 307.6850

EPHEMERIS_TYPE = 0
CLASSIFICATION_TYPE = U
NORAD_CAT_ID   = 67520
ELEMENT_SET_NO = 999
REV_AT_EPOCH   = 395
BSTAR          = -.16391423E-1
MEAN_MOTION_DOT = -.1932398E-1
MEAN_MOTION_DDOT = 0

CCSDS_OMM_VERS = 2.0
CREATION_DATE  = 
ORIGINATOR     = 

OBJECT_NAME    = STARLINK-36444
OBJECT_ID      = 2026-012AE
CENTER_NAME    = EARTH
REF_FRAME      = TEME
TIME_SYSTEM    = UTC
MEAN_ELEMENT_THEORY = SGP/SGP4

EPOCH          = 2026-02-06T06:00:02.000160
MEAN_MOTION    = 15.70022381
ECCENTRICITY   = .00011921
INCLINATION    = 42.9991
RA_OF_ASC_NODE = 134.0803
ARG_OF_PERICENTER = 271.7718
MEAN_ANOMALY   = 283.9942

EPHEMERIS_TYPE = 0
CLASSIFICATION_TYPE = U
NORAD_CAT_ID   = 67521
ELEMENT_SET_NO = 999
REV_AT_EPOCH   = 395
BSTAR          = -.17588133E-1
MEAN_MOTION_DOT = -.1931446E-1
MEAN_MOTION_DDOT = 0

CCSDS_OMM_VERS = 2.0
CREATION_DATE  = 
ORIGINATOR     = 

OBJECT_NAME    = HULIANWANG DIGUI-146
OBJECT_ID      = 2026-013A
CENTER_NAME    = EARTH
REF_FRAME      = TEME
TIME_SYSTEM    = UTC
MEAN_ELEMENT_THEORY = SGP/SGP4

EPOCH          = 2026-02-06T03:25:14.369952
MEAN_MOTION    = 13.86571838
ECCENTRICITY   = .00002521
INCLINATION    = 50.0082
RA_OF_ASC_NODE = 113.7182
ARG_OF_PERICENTER = 308.8597
MEAN_ANOMALY   = 51.2278

EPHEMERIS_TYPE = 0
CLASSIFICATION_TYPE = U
NORAD_CAT_ID   = 67522
ELEMENT_SET_NO = 999
REV_AT_EPOCH   = 249
BSTAR          = .14494496E-3
MEAN_MOTION_DOT = .24E-6
MEAN_MOTION_DDOT = 0

CCSDS_OMM_VERS = 2.0
CREATION_DATE  = 
ORIGINATOR     = 

OBJECT_NAME    = HULIANWANG DIGUI-147
OBJECT_ID      = 2026-013B
CENTER_NAME    = EARTH
REF_FRAME      = TEME
TIME_SYSTEM    = UTC
MEAN_ELEMENT_THEORY = SGP/SGP4

EPOCH          = 2026-02-05T13:32:37.750848
MEAN_MOTION    = 13.86775885
ECCENTRICITY   = .00008942
INCLINATION    = 49.9989
RA_OF_ASC_NODE = 115.9729
ARG_OF_PERICENTER = 207.9415
MEAN_ANOMALY   = 152.1435

EPHEMERIS_TYPE = 0
CLASSIFICATION_TYPE = U
NORAD_CAT_ID   = 67523
ELEMENT_SET_NO = 999
REV_AT_EPOCH   = 241
BSTAR          = .15236764E-3
MEAN_MOTION_DOT = .34E-6
MEAN_MOTION_DDOT = 0

